start=new Date('2022-08-18T00:00:00.000Z').valueOf();
sats=[{"MEAN_MOTION_DDOT":"0.0000000000000","LAUNCH_DATE":"2022-07-17","SEMIMAJOR_AXIS":"6727.745","MEAN_MOTION":"15.73252585","SITE":"AFETR","COUNTRY_CODE":"US","OBJECT_TYPE":"PAYLOAD","APOAPSIS":"351.610","TIME_SYSTEM":"UTC","CLASSIFICATION_TYPE":"U","ELEMENT_SET_NO":"999","EPOCH":"2022-08-17T16:00:00.999936","TLE_LINE2":"2 53168  53.2154 253.0263 0002973  17.1109 154.5742 15.73252585  5541","CENTER_NAME":"EARTH","EPHEMERIS_TYPE":"0","ECCENTRICITY":"0.00029730","MEAN_MOTION_DOT":"-0.00103928","OBJECT_ID":"2022-083AN","INCLINATION":"53.2154","GP_ID":"210382220","OBJECT_NAME":"STARLINK-4105","BSTAR":"-0.00074333000000","NORAD_CAT_ID":"53168","REF_FRAME":"TEME","MEAN_ANOMALY":"154.5742","TLE_LINE1":"1 53168U 22083AN  22229.66667824 -.00103928  00000-0 -74333-3 0  9998","PERIOD":"91.530","PERIAPSIS":"347.610","ARG_OF_PERICENTER":"17.1109","FILE":"3538728","REV_AT_EPOCH":"554","MEAN_ELEMENT_THEORY":"SGP4","RCS_SIZE":"LARGE","RA_OF_ASC_NODE":"253.0263","DECAY_DATE":null},{"SEMIMAJOR_AXIS":"6727.827","MEAN_MOTION":"15.73223909","MEAN_MOTION_DDOT":"0.0000000000000","LAUNCH_DATE":"2022-07-17","ELEMENT_SET_NO":"999","CLASSIFICATION_TYPE":"U","EPOCH":"2022-08-17T16:00:00.999936","TLE_LINE2":"2 53169  53.2152 253.0212 0004179   9.3177 165.3689 15.73223909  5540","EPHEMERIS_TYPE":"0","CENTER_NAME":"EARTH","SITE":"AFETR","COUNTRY_CODE":"US","OBJECT_TYPE":"PAYLOAD","APOAPSIS":"352.504","TIME_SYSTEM":"UTC","BSTAR":"-0.00029667000000","OBJECT_NAME":"STARLINK-4117","NORAD_CAT_ID":"53169","REF_FRAME":"TEME","ECCENTRICITY":"0.00041790","OBJECT_ID":"2022-083AP","MEAN_MOTION_DOT":"-0.00042118","INCLINATION":"53.2152","GP_ID":"210382209","RCS_SIZE":"LARGE","MEAN_ELEMENT_THEORY":"SGP4","RA_OF_ASC_NODE":"253.0212","DECAY_DATE":null,"MEAN_ANOMALY":"165.3689","PERIAPSIS":"346.880","PERIOD":"91.532","ARG_OF_PERICENTER":"9.3177","TLE_LINE1":"1 53169U 22083AP  22229.66667824 -.00042118  00000-0 -29667-3 0  9992","REV_AT_EPOCH":"554","FILE":"3538728"},{"NORAD_CAT_ID":"53170","REF_FRAME":"TEME","BSTAR":"0.00042896000000","OBJECT_NAME":"STARLINK-4095","MEAN_MOTION_DOT":"0.00059946","OBJECT_ID":"2022-083AQ","GP_ID":"210408503","INCLINATION":"53.2155","ECCENTRICITY":"0.00030050","DECAY_DATE":null,"RCS_SIZE":"LARGE","MEAN_ELEMENT_THEORY":"SGP4","RA_OF_ASC_NODE":"253.4400","REV_AT_EPOCH":"130","FILE":"3538809","MEAN_ANOMALY":"50.1565","ARG_OF_PERICENTER":"10.4945","PERIAPSIS":"347.821","PERIOD":"91.535","TLE_LINE1":"1 53170U 22083AQ  22229.58334491  .00059946  00000-0  42896-3 0  9990","MEAN_MOTION":"15.73171022","SEMIMAJOR_AXIS":"6727.978","LAUNCH_DATE":"2022-07-17","MEAN_MOTION_DDOT":"0.0000000000000","CENTER_NAME":"EARTH","EPHEMERIS_TYPE":"0","CLASSIFICATION_TYPE":"U","ELEMENT_SET_NO":"999","EPOCH":"2022-08-17T14:00:01.000224","TLE_LINE2":"2 53170  53.2155 253.4400 0003005  10.4945  50.1565 15.73171022  1303","OBJECT_TYPE":"PAYLOAD","TIME_SYSTEM":"UTC","APOAPSIS":"351.865","SITE":"AFETR","COUNTRY_CODE":"US"},{"DECAY_DATE":null,"RA_OF_ASC_NODE":"253.4237","RCS_SIZE":"LARGE","MEAN_ELEMENT_THEORY":"SGP4","REV_AT_EPOCH":"130","FILE":"3538809","PERIAPSIS":"347.652","PERIOD":"91.532","ARG_OF_PERICENTER":"17.9123","TLE_LINE1":"1 53171U 22083AR  22229.58334491 -.00041314  00000-0 -29107-3 0  9993","MEAN_ANOMALY":"49.9317","REF_FRAME":"TEME","NORAD_CAT_ID":"53171","BSTAR":"-0.00029107000000","OBJECT_NAME":"STARLINK-4052","GP_ID":"210409184","INCLINATION":"53.2153","OBJECT_ID":"2022-083AR","MEAN_MOTION_DOT":"-0.00041314","ECCENTRICITY":"0.00030590","CENTER_NAME":"EARTH","EPHEMERIS_TYPE":"0","EPOCH":"2022-08-17T14:00:01.000224","TLE_LINE2":"2 53171  53.2153 253.4237 0003059  17.9123  49.9317 15.73217651  1309","CLASSIFICATION_TYPE":"U","ELEMENT_SET_NO":"999","APOAPSIS":"351.768","TIME_SYSTEM":"UTC","OBJECT_TYPE":"PAYLOAD","COUNTRY_CODE":"US","SITE":"AFETR","MEAN_MOTION":"15.73217651","SEMIMAJOR_AXIS":"6727.845","LAUNCH_DATE":"2022-07-17","MEAN_MOTION_DDOT":"0.0000000000000"},{"REV_AT_EPOCH":"130","FILE":"3538809","PERIAPSIS":"347.574","ARG_OF_PERICENTER":"6.4825","PERIOD":"91.535","TLE_LINE1":"1 53172U 22083AS  22229.58334491  .00057539  00000-0  41218-3 0  9995","MEAN_ANOMALY":"54.7950","DECAY_DATE":null,"RA_OF_ASC_NODE":"253.4369","RCS_SIZE":"LARGE","MEAN_ELEMENT_THEORY":"SGP4","GP_ID":"210409048","INCLINATION":"53.2152","MEAN_MOTION_DOT":"0.00057539","OBJECT_ID":"2022-083AS","ECCENTRICITY":"0.00034160","REF_FRAME":"TEME","NORAD_CAT_ID":"53172","BSTAR":"0.00041218000000","OBJECT_NAME":"STARLINK-4299","TIME_SYSTEM":"UTC","APOAPSIS":"352.170","OBJECT_TYPE":"PAYLOAD","COUNTRY_CODE":"US","SITE":"AFETR","EPHEMERIS_TYPE":"0","CENTER_NAME":"EARTH","TLE_LINE2":"2 53172  53.2152 253.4369 0003416   6.4825  54.7950 15.73160845  1303","EPOCH":"2022-08-17T14:00:01.000224","CLASSIFICATION_TYPE":"U","ELEMENT_SET_NO":"999","LAUNCH_DATE":"2022-07-17","MEAN_MOTION_DDOT":"0.0000000000000","MEAN_MOTION":"15.73160845","SEMIMAJOR_AXIS":"6728.007"},{"COUNTRY_CODE":"US","SITE":"AFETR","TIME_SYSTEM":"UTC","APOAPSIS":"352.012","OBJECT_TYPE":"PAYLOAD","TLE_LINE2":"2 53173  53.2153 253.0170 0003388  15.7092 161.3626 15.73209545  5544","EPOCH":"2022-08-17T16:00:00.999936","CLASSIFICATION_TYPE":"U","ELEMENT_SET_NO":"999","CENTER_NAME":"EARTH","EPHEMERIS_TYPE":"0","MEAN_MOTION_DDOT":"0.0000000000000","LAUNCH_DATE":"2022-07-17","SEMIMAJOR_AXIS":"6727.868","MEAN_MOTION":"15.73209545","PERIAPSIS":"347.454","ARG_OF_PERICENTER":"15.7092","PERIOD":"91.533","TLE_LINE1":"1 53173U 22083AT  22229.66667824  .00002679  00000-0  23513-4 0  9998","MEAN_ANOMALY":"161.3626","REV_AT_EPOCH":"554","FILE":"3538728","RA_OF_ASC_NODE":"253.0170","RCS_SIZE":"LARGE","MEAN_ELEMENT_THEORY":"SGP4","DECAY_DATE":null,"ECCENTRICITY":"0.00033880","GP_ID":"210382709","INCLINATION":"53.2153","OBJECT_ID":"2022-083AT","MEAN_MOTION_DOT":"0.00002679","BSTAR":"0.00002351300000","OBJECT_NAME":"STARLINK-4300","REF_FRAME":"TEME","NORAD_CAT_ID":"53173"},{"SEMIMAJOR_AXIS":"6784.987","MEAN_MOTION":"15.53385568","MEAN_MOTION_DDOT":"0.0000000000000","LAUNCH_DATE":"2022-07-17","CLASSIFICATION_TYPE":"U","ELEMENT_SET_NO":"999","EPOCH":"2022-08-17T14:00:01.000224","TLE_LINE2":"2 53174  53.2172 254.1192 0001240  67.7674  59.7521 15.53385568  1302","EPHEMERIS_TYPE":"0","CENTER_NAME":"EARTH","SITE":"AFETR","COUNTRY_CODE":"US","OBJECT_TYPE":"PAYLOAD","TIME_SYSTEM":"UTC","APOAPSIS":"407.693","OBJECT_NAME":"STARLINK-4205","BSTAR":"-0.01917100000000","NORAD_CAT_ID":"53174","REF_FRAME":"TEME","ECCENTRICITY":"0.00012400","MEAN_MOTION_DOT":"-0.01115154","OBJECT_ID":"2022-083AU","GP_ID":"210408912","INCLINATION":"53.2172","MEAN_ELEMENT_THEORY":"SGP4","RCS_SIZE":"MEDIUM","RA_OF_ASC_NODE":"254.1192","DECAY_DATE":null,"MEAN_ANOMALY":"59.7521","TLE_LINE1":"1 53174U 22083AU  22229.58334491 -.01115154  00000-0 -19171-1 0  9999","ARG_OF_PERICENTER":"67.7674","PERIAPSIS":"406.010","PERIOD":"92.701","FILE":"3538809","REV_AT_EPOCH":"130"},{"OBJECT_NAME":"STARLINK-4292","BSTAR":"-0.02064500000000","REF_FRAME":"TEME","NORAD_CAT_ID":"53175","ECCENTRICITY":"0.00014790","GP_ID":"210382730","INCLINATION":"53.2170","OBJECT_ID":"2022-083AV","MEAN_MOTION_DOT":"-0.01202348","RA_OF_ASC_NODE":"253.7199","MEAN_ELEMENT_THEORY":"SGP4","RCS_SIZE":"LARGE","DECAY_DATE":null,"TLE_LINE1":"1 53175U 22083AV  22229.66667824 -.01202348  00000-0 -20645-1 0  9998","PERIAPSIS":"406.450","ARG_OF_PERICENTER":"51.0712","PERIOD":"92.713","MEAN_ANOMALY":"187.9887","FILE":"3538729","REV_AT_EPOCH":"553","SEMIMAJOR_AXIS":"6785.589","MEAN_MOTION":"15.53178808","MEAN_MOTION_DDOT":"0.0000000000000","LAUNCH_DATE":"2022-07-17","EPOCH":"2022-08-17T16:00:00.999936","TLE_LINE2":"2 53175  53.2170 253.7199 0001479  51.0712 187.9887 15.53178808  5531","CLASSIFICATION_TYPE":"U","ELEMENT_SET_NO":"999","EPHEMERIS_TYPE":"0","CENTER_NAME":"EARTH","COUNTRY_CODE":"US","SITE":"AFETR","TIME_SYSTEM":"UTC","APOAPSIS":"408.457","OBJECT_TYPE":"PAYLOAD"},{"SITE":"AFETR","COUNTRY_CODE":"US","OBJECT_TYPE":"PAYLOAD","TIME_SYSTEM":"UTC","APOAPSIS":"352.012","CLASSIFICATION_TYPE":"U","ELEMENT_SET_NO":"999","TLE_LINE2":"2 53176  53.2149 253.4305 0003446   6.7652  56.9114 15.73223251  1304","EPOCH":"2022-08-17T14:00:01.000224","EPHEMERIS_TYPE":"0","CENTER_NAME":"EARTH","MEAN_MOTION_DDOT":"0.0000000000000","LAUNCH_DATE":"2022-07-17","SEMIMAJOR_AXIS":"6727.829","MEAN_MOTION":"15.73223251","MEAN_ANOMALY":"56.9114","TLE_LINE1":"1 53176U 22083AW  22229.58334491 -.00041495  00000-0 -29227-3 0  9991","PERIOD":"91.532","PERIAPSIS":"347.375","ARG_OF_PERICENTER":"6.7652","FILE":"3538809","REV_AT_EPOCH":"130","MEAN_ELEMENT_THEORY":"SGP4","RCS_SIZE":"LARGE","RA_OF_ASC_NODE":"253.4305","DECAY_DATE":null,"ECCENTRICITY":"0.00034460","OBJECT_ID":"2022-083AW","MEAN_MOTION_DOT":"-0.00041495","GP_ID":"210408640","INCLINATION":"53.2149","OBJECT_NAME":"STARLINK-4294","BSTAR":"-0.00029227000000","NORAD_CAT_ID":"53176","REF_FRAME":"TEME"},{"COUNTRY_CODE":"US","SITE":"AFETR","APOAPSIS":"352.169","TIME_SYSTEM":"UTC","OBJECT_TYPE":"PAYLOAD","TLE_LINE2":"2 53177  53.2160 253.4310 0003555   4.8963  61.1449 15.73194114  1303","EPOCH":"2022-08-17T14:00:01.000224","CLASSIFICATION_TYPE":"U","ELEMENT_SET_NO":"999","CENTER_NAME":"EARTH","EPHEMERIS_TYPE":"0","MEAN_MOTION_DDOT":"0.0000000000000","LAUNCH_DATE":"2022-07-17","SEMIMAJOR_AXIS":"6727.912","MEAN_MOTION":"15.73194114","PERIAPSIS":"347.385","ARG_OF_PERICENTER":"4.8963","PERIOD":"91.534","TLE_LINE1":"1 53177U 22083AX  22229.58334491  .00011407  00000-0  85600-4 0  9998","MEAN_ANOMALY":"61.1449","REV_AT_EPOCH":"130","FILE":"3538809","RA_OF_ASC_NODE":"253.4310","RCS_SIZE":"LARGE","MEAN_ELEMENT_THEORY":"SGP4","DECAY_DATE":null,"ECCENTRICITY":"0.00035550","GP_ID":"210409457","INCLINATION":"53.2160","MEAN_MOTION_DOT":"0.00011407","OBJECT_ID":"2022-083AX","BSTAR":"0.00008560000000","OBJECT_NAME":"STARLINK-4298","REF_FRAME":"TEME","NORAD_CAT_ID":"53177"}];
